{"type": "FeatureCollection", "features": [ {"type": "Feature", "properties": {"norad_id": 34375, "name": "IRIDIUM 33 DEB", "group": "iridium-33-debris", "lat": -64.73856785045821, "lon": 11.60750136121326, "alt_km": 861.7086992470458, "timestamp": "2025-12-09T11:33:55.185837+00:00", "meta": {"OBJECT_NAME": "IRIDIUM 33 DEB", "OBJECT_ID": "1997-051FT", "EPOCH": "2025-12-09T01:01:12.012960", "MEAN_MOTION": 14.17981407, "ECCENTRICITY": 0.0103035, "INCLINATION": 86.4326, "RA_OF_ASC_NODE": 184.1877, "ARG_OF_PERICENTER": 138.3544, "MEAN_ANOMALY": 23.8755, "EPHEMERIS_TYPE": 0, "CLASSIFICATION_TYPE": "U", "NORAD_CAT_ID": 34375, "ELEMENT_SET_NO": 999, "REV_AT_EPOCH": 86659, "BSTAR": 0.00056641, "MEAN_MOTION_DOT": 1.241e-05, "MEAN_MOTION_DDOT": 0}, "tle": {"line1": "1 34375U 97051FT  25343.04250015  .00001241  00000+0  56641-3 0  9990", "line2": "2 34375  86.4326 184.1877 0103035 138.3544  23.8755 14.17981407866595"}}, "geometry": {"type": "Point", "coordinates": [11.60750136121326, -64.73856785045821]}}, {"type": "Feature", "properties": {"norad_id": 34376, "name": "IRIDIUM 33 DEB", "group": "iridium-33-debris", "lat": 84.40511813953454, "lon": 146.63879337391893, "alt_km": 675.5194113846892, "timestamp": "2025-12-09T11:33:55.185848+00:00", "meta": {"OBJECT_NAME": "IRIDIUM 33 DEB", "OBJECT_ID": "1997-051FU", "EPOCH": "2025-12-09T01:16:56.149824", "MEAN_MOTION": 14.62483707, "ECCENTRICITY": 0.002673, "INCLINATION": 86.2984, "RA_OF_ASC_NODE": 8.1966, "ARG_OF_PERICENTER": 179.1594, "MEAN_ANOMALY": 180.9667, "EPHEMERIS_TYPE": 0, "CLASSIFICATION_TYPE": "U", "NORAD_CAT_ID": 34376, "ELEMENT_SET_NO": 999, "REV_AT_EPOCH": 87953, "BSTAR": 0.0016761, "MEAN_MOTION_DOT": 8.56e-05, "MEAN_MOTION_DDOT": 0}, "tle": {"line1": "1 34376U 97051FU  25343.05342766  .00008560  00000+0  16761-2 0  9996", "line2": "2 34376  86.2984   8.1966 0026730 179.1594 180.9667 14.62483707879537"}}, "geometry": {"type": "Point", "coordinates": [146.63879337391893, 84.40511813953454]}}, {"type": "Feature", "properties": {"norad_id": 34486, "name": "IRIDIUM 33 DEB", "group": "iridium-33-debris", "lat": -76.61652291527403, "lon": -1.8414898836796716, "alt_km": 596.8298969442221, "timestamp": "2025-12-09T11:33:55.185859+00:00", "meta": {"OBJECT_NAME": "IRIDIUM 33 DEB", "OBJECT_ID": "1997-051GB", "EPOCH": "2025-12-09T02:32:24.431712", "MEAN_MOTION": 14.95535062, "ECCENTRICITY": 0.0013377, "INCLINATION": 86.394, "RA_OF_ASC_NODE": 13.7018, "ARG_OF_PERICENTER": 124.1656, "MEAN_ANOMALY": 295.4203, "EPHEMERIS_TYPE": 0, "CLASSIFICATION_TYPE": "U", "NORAD_CAT_ID": 34486, "ELEMENT_SET_NO": 999, "REV_AT_EPOCH": 88932, "BSTAR": 0.0024816, "MEAN_MOTION_DOT": 0.00027645, "MEAN_MOTION_DDOT": 0}, "tle": {"line1": "1 34486U 97051GB  25343.10583833  .00027645  00000+0  24816-2 0  9991", "line2": "2 34486  86.3940  13.7018 0013377 124.1656 295.4203 14.95535062889328"}}, "geometry": {"type": "Point", "coordinates": [-1.8414898836796716, -76.61652291527403]}}, {"type": "Feature", "properties": {"norad_id": 34487, "name": "IRIDIUM 33 DEB", "group": "iridium-33-debris", "lat": -13.060256812219501, "lon": -165.3701220640049, "alt_km": 738.9787469867542, "timestamp": "2025-12-09T11:33:55.185869+00:00", "meta": {"OBJECT_NAME": "IRIDIUM 33 DEB", "OBJECT_ID": "1997-051GC", "EPOCH": "2025-12-09T02:36:24.393024", "MEAN_MOTION": 14.43208677, "ECCENTRICITY": 0.0032494, "INCLINATION": 86.3437, "RA_OF_ASC_NODE": 13.9406, "ARG_OF_PERICENTER": 139.8025, "MEAN_ANOMALY": 274.7382, "EPHEMERIS_TYPE": 0, "CLASSIFICATION_TYPE": "U", "NORAD_CAT_ID": 34487, "ELEMENT_SET_NO": 999, "REV_AT_EPOCH": 88196, "BSTAR": 0.00027735, "MEAN_MOTION_DOT": 9.58e-06, "MEAN_MOTION_DDOT": 0}, "tle": {"line1": "1 34487U 97051GC  25343.10861566  .00000958  00000+0  27735-3 0  9996", "line2": "2 34487  86.3437  13.9406 0032494 139.8025 274.7382 14.43208677881969"}}, "geometry": {"type": "Point", "coordinates": [-165.3701220640049, -13.060256812219501]}}, {"type": "Feature", "properties": {"norad_id": 34488, "name": "IRIDIUM 33 DEB", "group": "iridium-33-debris", "lat": -58.32055070442483, "lon": 133.4039487312383, "alt_km": 498.3661885744323, "timestamp": "2025-12-09T11:33:55.185880+00:00", "meta": {"OBJECT_NAME": "IRIDIUM 33 DEB", "OBJECT_ID": "1997-051GD", "EPOCH": "2025-12-08T21:57:07.266816", "MEAN_MOTION": 15.27997887, "ECCENTRICITY": 0.0014352, "INCLINATION": 86.3246, "RA_OF_ASC_NODE": 307.7053, "ARG_OF_PERICENTER": 57.4212, "MEAN_ANOMALY": 302.8418, "EPHEMERIS_TYPE": 0, "CLASSIFICATION_TYPE": "U", "NORAD_CAT_ID": 34488, "ELEMENT_SET_NO": 999, "REV_AT_EPOCH": 89181, "BSTAR": 0.0052155, "MEAN_MOTION_DOT": 0.00145336, "MEAN_MOTION_DDOT": 0}, "tle": {"line1": "1 34488U 97051GD  25342.91466744  .00145336  00000+0  52155-2 0  9997", "line2": "2 34488  86.3246 307.7053 0014352  57.4212 302.8418 15.27997887891815"}}, "geometry": {"type": "Point", "coordinates": [133.4039487312383, -58.32055070442483]}}, {"type": "Feature", "properties": {"norad_id": 34492, "name": "IRIDIUM 33 DEB", "group": "iridium-33-debris", "lat": 53.62262979793839, "lon": 151.14195269317688, "alt_km": 873.2423318287965, "timestamp": "2025-12-09T11:33:55.185890+00:00", "meta": {"OBJECT_NAME": "IRIDIUM 33 DEB", "OBJECT_ID": "1997-051GH", "EPOCH": "2025-12-07T23:50:44.784960", "MEAN_MOTION": 14.25534668, "ECCENTRICITY": 0.0189621, "INCLINATION": 86.4724, "RA_OF_ASC_NODE": 336.5463, "ARG_OF_PERICENTER": 253.6464, "MEAN_ANOMALY": 161.0806, "EPHEMERIS_TYPE": 0, "CLASSIFICATION_TYPE": "U", "NORAD_CAT_ID": 34492, "ELEMENT_SET_NO": 999, "REV_AT_EPOCH": 84991, "BSTAR": 0.0068533726, "MEAN_MOTION_DOT": 0.00019616, "MEAN_MOTION_DDOT": 0}, "tle": {"line1": "1 34492U 97051GH  25341.99357390  .00019616  00000+0  68534-2 0  9994", "line2": "2 34492  86.4724 336.5463 0189621 253.6464 161.0806 14.25534668849919"}}, "geometry": {"type": "Point", "coordinates": [151.14195269317688, 53.62262979793839]}}, {"type": "Feature", "properties": {"norad_id": 34497, "name": "IRIDIUM 33 DEB", "group": "iridium-33-debris", "lat": -14.729916964488138, "lon": 52.81304418690422, "alt_km": 748.3376009706963, "timestamp": "2025-12-09T11:33:55.185901+00:00", "meta": {"OBJECT_NAME": "IRIDIUM 33 DEB", "OBJECT_ID": "1997-051GN", "EPOCH": "2025-12-08T05:36:30.454848", "MEAN_MOTION": 14.27433857, "ECCENTRICITY": 0.00792669, "INCLINATION": 86.2781, "RA_OF_ASC_NODE": 54.3266, "ARG_OF_PERICENTER": 354.2573, "MEAN_ANOMALY": 60.9681, "EPHEMERIS_TYPE": 0, "CLASSIFICATION_TYPE": "U", "NORAD_CAT_ID": 34497, "ELEMENT_SET_NO": 999, "REV_AT_EPOCH": 86819, "BSTAR": 0.00099948943, "MEAN_MOTION_DOT": 2.553e-05, "MEAN_MOTION_DDOT": 0}, "tle": {"line1": "1 34497U 97051GN  25342.23368582  .00002553  00000+0  99949-3 0  9999", "line2": "2 34497  86.2781  54.3266 0079266 354.2573  60.9681 14.27433857868192"}}, "geometry": {"type": "Point", "coordinates": [52.81304418690422, -14.729916964488138]}}, {"type": "Feature", "properties": {"norad_id": 34508, "name": "IRIDIUM 33 DEB", "group": "iridium-33-debris", "lat": 14.849625561468173, "lon": 104.98848268380404, "alt_km": 810.8758038971728, "timestamp": "2025-12-09T11:33:55.185911+00:00", "meta": {"OBJECT_NAME": "IRIDIUM 33 DEB", "OBJECT_ID": "1997-051GZ", "EPOCH": "2025-12-08T20:28:07.821120", "MEAN_MOTION": 14.38371181, "ECCENTRICITY": 0.0065865, "INCLINATION": 86.3703, "RA_OF_ASC_NODE": 104.2908, "ARG_OF_PERICENTER": 185.485, "MEAN_ANOMALY": 174.5635, "EPHEMERIS_TYPE": 0, "CLASSIFICATION_TYPE": "U", "NORAD_CAT_ID": 34508, "ELEMENT_SET_NO": 999, "REV_AT_EPOCH": 87253, "BSTAR": 0.0019764, "MEAN_MOTION_DOT": 6.195e-05, "MEAN_MOTION_DDOT": 0}, "tle": {"line1": "1 34508U 97051GZ  25342.85286830  .00006195  00000+0  19764-2 0  9997", "line2": "2 34508  86.3703 104.2908 0065865 185.4850 174.5635 14.38371181872537"}}, "geometry": {"type": "Point", "coordinates": [104.98848268380404, 14.849625561468173]}}, {"type": "Feature", "properties": {"norad_id": 34521, "name": "IRIDIUM 33 DEB", "group": "iridium-33-debris", "lat": -80.18634943021203, "lon": -126.54857460991461, "alt_km": 689.1197708407626, "timestamp": "2025-12-09T11:33:55.185921+00:00", "meta": {"OBJECT_NAME": "IRIDIUM 33 DEB", "OBJECT_ID": "1997-051HN", "EPOCH": "2025-12-09T03:48:43.130592", "MEAN_MOTION": 14.63316312, "ECCENTRICITY": 0.0001218, "INCLINATION": 86.3799, "RA_OF_ASC_NODE": 32.1245, "ARG_OF_PERICENTER": 240.0479, "MEAN_ANOMALY": 120.0612, "EPHEMERIS_TYPE": 0, "CLASSIFICATION_TYPE": "U", "NORAD_CAT_ID": 34521, "ELEMENT_SET_NO": 999, "REV_AT_EPOCH": 88420, "BSTAR": 0.0010832, "MEAN_MOTION_DOT": 5.611e-05, "MEAN_MOTION_DDOT": 0}, "tle": {"line1": "1 34521U 97051HN  25343.15883253  .00005611  00000+0  10832-2 0  9997", "line2": "2 34521  86.3799  32.1245 0001218 240.0479 120.0612 14.63316312884208"}}, "geometry": {"type": "Point", "coordinates": [-126.54857460991461, -80.18634943021203]}}, {"type": "Feature", "properties": {"norad_id": 34525, "name": "IRIDIUM 33 DEB", "group": "iridium-33-debris", "lat": -40.74087327383374, "lon": 45.102369998908735, "alt_km": 759.328889598225, "timestamp": "2025-12-09T11:33:55.185932+00:00", "meta": {"OBJECT_NAME": "IRIDIUM 33 DEB", "OBJECT_ID": "1997-051HS", "EPOCH": "2025-12-08T10:52:50.630592", "MEAN_MOTION": 14.42890463, "ECCENTRICITY": 0.00066346, "INCLINATION": 86.373, "RA_OF_ASC_NODE": 48.6732, "ARG_OF_PERICENTER": 105.0702, "MEAN_ANOMALY": 275.0516, "EPHEMERIS_TYPE": 0, "CLASSIFICATION_TYPE": "U", "NORAD_CAT_ID": 34525, "ELEMENT_SET_NO": 999, "REV_AT_EPOCH": 88026, "BSTAR": 0.00067150553, "MEAN_MOTION_DOT": 2.262e-05, "MEAN_MOTION_DDOT": 0}, "tle": {"line1": "1 34525U 97051HS  25342.45336378  .00002262  00000+0  67151-3 0  9990", "line2": "2 34525  86.3730  48.6732 0006634 105.0702 275.0516 14.42890463880263"}}, "geometry": {"type": "Point", "coordinates": [45.102369998908735, -40.74087327383374]}}]}